[{"OBJECT_NAME":"STARLINK-32436","OBJECT_ID":"2024-171R","EPOCH":"2026-03-09T21:19:21.430272","MEAN_MOTION":15.30184208,"ECCENTRICITY":9.889e-5,"INCLINATION":53.1614,"RA_OF_ASC_NODE":321.1848,"ARG_OF_PERICENTER":96.2543,"MEAN_ANOMALY":263.857,"EPHEMERIS_TYPE":0,"CLASSIFICATION_TYPE":"U","NORAD_CAT_ID":61215,"ELEMENT_SET_NO":999,"REV_AT_EPOCH":8240,"BSTAR":6.6157322e-5,"MEAN_MOTION_DOT":1.6e-5,"MEAN_MOTION_DDOT":0},{"OBJECT_NAME":"OBJECT B","OBJECT_ID":"2024-205B","EPOCH":"2026-03-09T23:46:05.115936","MEAN_MOTION":15.28158697,"ECCENTRICITY":0.00105957,"INCLINATION":97.4192,"RA_OF_ASC_NODE":146.9311,"ARG_OF_PERICENTER":34.0947,"MEAN_ANOMALY":326.0972,"EPHEMERIS_TYPE":0,"CLASSIFICATION_TYPE":"U","NORAD_CAT_ID":61895,"ELEMENT_SET_NO":999,"REV_AT_EPOCH":7352,"BSTAR":0.00054154807,"MEAN_MOTION_DOT":0.00014827,"MEAN_MOTION_DDOT":0}]
